[{"OBJECT_NAME":"ONEWEB-0035","OBJECT_ID":"2020-008N","EPOCH":"2026-03-09T21:29:01.355712","MEAN_MOTION":13.10369731,"ECCENTRICITY":0.00019296,"INCLINATION":87.8766,"RA_OF_ASC_NODE":56.0488,"ARG_OF_PERICENTER":88.0653,"MEAN_ANOMALY":272.0695,"EPHEMERIS_TYPE":0,"CLASSIFICATION_TYPE":"U","NORAD_CAT_ID":45143,"ELEMENT_SET_NO":999,"REV_AT_EPOCH":29493,"BSTAR":-0.00044866167,"MEAN_MOTION_DOT":-1.44e-6,"MEAN_MOTION_DDOT":0},{"OBJECT_NAME":"DELTA 1 DEB","OBJECT_ID":"1975-052MD","EPOCH":"2026-02-28T04:12:13.480992","MEAN_MOTION":13.1726946,"ECCENTRICITY":0.01591231,"INCLINATION":99.6119,"RA_OF_ASC_NODE":20.5675,"ARG_OF_PERICENTER":62.4678,"MEAN_ANOMALY":299.2507,"EPHEMERIS_TYPE":0,"CLASSIFICATION_TYPE":"U","NORAD_CAT_ID":42644,"ELEMENT_SET_NO":999,"REV_AT_EPOCH":24099,"BSTAR":0.00035588336,"MEAN_MOTION_DOT":1.09e-6,"MEAN_MOTION_DDOT":0}]
